      2.10          N: GNSS NAV DATA                        RINEX VERSION / TYPE
fic2rin                                 07/17/2019 00:19:24 PGM / RUN BY / DATE
                                                            END OF HEADER
14 19  7 16 15 59 44.0-7.124058902264e-05 1.818989403546e-12 0.000000000000e+00
    2.000000000000e+00 9.781250000000e+00 4.674123267424e-09 2.790801818292e+00
    5.010515451431e-07 1.077720778994e-02 5.051493644714e-06 5.153712581635e+03
    2.303840000000e+05 8.009374141693e-08-1.688608529780e+00-7.264316082001e-08
    9.599909115434e-01 2.790625000000e+02-1.932621248038e+00-7.836755003730e-09
    2.042942239602e-10 1.000000000000e+00 2.062000000000e+03 0.000000000000e+00
    2.400000000000e+00 0.000000000000e+00-9.778887033463e-09 2.000000000000e+00
    2.232000000000e+05 4.000000000000e+00
24 19  7 16 15 59 44.0-6.889598444104e-05-4.547473508865e-13 0.000000000000e+00
    5.000000000000e+00-1.275000000000e+01 5.081640242142e-09 1.144099619953e+00
   -7.636845111847e-07 8.411041810177e-03 7.972121238708e-06 5.153705976486e+03
    2.303840000000e+05-3.725290298462e-08-7.725840279916e-01 8.754432201385e-08
    9.381895963911e-01 2.139062500000e+02 6.015635970584e-01-8.256058183677e-09
   -6.007393089178e-10 1.000000000000e+00 2.062000000000e+03 0.000000000000e+00
    2.400000000000e+00 0.000000000000e+00 2.793967723846e-09 5.000000000000e+00
    2.232000000000e+05 4.000000000000e+00
17 19  7 16 15 59 44.0 8.975341916084e-05 6.707523425575e-12 0.000000000000e+00
    4.000000000000e+00 3.818750000000e+01 4.302679223860e-09 2.937924499319e+00
    2.022832632065e-06 1.287591038272e-02 4.488974809647e-07 5.153768684387e+03
    2.303840000000e+05 2.309679985046e-07 1.428230170377e+00-1.657754182816e-07
    9.839192496032e-01 3.802187500000e+02-1.710990585374e+00-8.006404927474e-09
    5.321650239522e-11 1.000000000000e+00 2.062000000000e+03 0.000000000000e+00
    2.400000000000e+00 0.000000000000e+00-1.117587089539e-08 4.000000000000e+00
    2.232000000000e+05 4.000000000000e+00
 2 19  7 16 16  0  0.0-2.615009434521e-04-8.640199666843e-12 0.000000000000e+00
    6.400000000000e+01-1.219687500000e+02 4.785556480493e-09 1.135344852539e+00
   -6.625428795815e-06 1.893224834930e-02 5.224719643593e-06 5.153750255585e+03
    2.304000000000e+05-4.004687070847e-07 2.357878872125e+00-1.750886440277e-07
    9.554474961433e-01 2.839062500000e+02-1.730124079230e+00-8.513568910032e-09
   -3.743013054375e-10 1.000000000000e+00 2.062000000000e+03 0.000000000000e+00
    2.400000000000e+00 0.000000000000e+00-2.048909664154e-08 6.400000000000e+01
    2.232000000000e+05 4.000000000000e+00
 1 19  7 16 16  0  0.0-6.900867447257e-05-1.057287590811e-11 0.000000000000e+00
    6.400000000000e+01-1.176562500000e+02 4.284821337150e-09 8.602848213788e-01
   -5.928799510002e-06 9.042821358889e-03 5.133450031281e-06 5.153652807236e+03
    2.304000000000e+05-4.284083843231e-08 2.427651153872e+00 9.499490261078e-08
    9.764040755832e-01 2.891250000000e+02 7.373272985158e-01-8.119623929214e-09
   -4.014452932364e-10 1.000000000000e+00 2.062000000000e+03 0.000000000000e+00
    2.400000000000e+00 0.000000000000e+00 5.587935447693e-09 6.400000000000e+01
    2.232000000000e+05 4.000000000000e+00
 8 19  7 16 16  0  0.0-1.514256000519e-04-1.477928890381e-12 0.000000000000e+00
    1.100000000000e+01 5.918750000000e+01 4.664122850867e-09-3.104081283548e+00
    3.144145011902e-06 4.389813519083e-03 1.097097992897e-06 5.153766778946e+03
    2.304000000000e+05-8.940696716309e-08 1.359969009859e+00 5.215406417847e-08
    9.700525753606e-01 3.638437500000e+02-2.028173986502e-01-8.249629344461e-09
    2.003654888840e-10 1.000000000000e+00 2.062000000000e+03 0.000000000000e+00
    2.400000000000e+00 0.000000000000e+00 5.122274160385e-09 1.100000000000e+01
    2.232000000000e+05 4.000000000000e+00
 5 19  7 16 16  0  0.0 3.259629011154e-09-2.273736754432e-13 0.000000000000e+00
    1.340000000000e+02-4.140625000000e+01 4.387682764599e-09-2.466861755928e+00
   -2.164393663406e-06 5.758115323260e-03 1.132674515247e-05 5.153733888626e+03
    2.304000000000e+05-2.793967723846e-08-2.841388874475e+00-2.235174179077e-08
    9.505329355007e-01 1.552500000000e+02 7.342367845949e-01-7.727464737066e-09
    4.057311860468e-10 1.000000000000e+00 2.062000000000e+03 0.000000000000e+00
    2.400000000000e+00 0.000000000000e+00-1.117587089539e-08 1.340000000000e+02
    2.232000000000e+05 4.000000000000e+00
 3 19  7 16 16  0  0.0 1.807613298297e-04-2.160049916711e-12 0.000000000000e+00
    6.800000000000e+01-3.790625000000e+01 4.225533153274e-09-1.394532071858e-01
   -2.052634954453e-06 2.333752461709e-03 1.041777431965e-05 5.153754951477e+03
    2.304000000000e+05 3.911554813385e-08-2.813857221431e+00 7.450580596924e-09
    9.636408365602e-01 1.779687500000e+02 6.423874276377e-01-7.764966299157e-09
    2.903692379014e-10 1.000000000000e+00 2.062000000000e+03 0.000000000000e+00
    2.400000000000e+00 0.000000000000e+00 1.862645149231e-09 6.800000000000e+01
    2.232000000000e+05 4.000000000000e+00
11 19  7 16 16  0  0.0-5.596810951829e-04 9.436007530894e-12 0.000000000000e+00
    2.700000000000e+01-6.859375000000e+01 6.157399337540e-09 1.396975276713e-01
   -3.570690751076e-06 1.675335317850e-02 1.128762960434e-06 5.153712039948e+03
    2.304000000000e+05-1.229345798492e-07 1.973458732032e+00-1.564621925354e-07
    9.098574872393e-01 3.334687500000e+02 1.909213852180e+00-9.332531594544e-09
   -1.903650723265e-10 1.000000000000e+00 2.062000000000e+03 0.000000000000e+00
    2.400000000000e+00 0.000000000000e+00-1.210719347000e-08 2.700000000000e+01
    2.232000000000e+05 4.000000000000e+00
 7 19  7 16 16  0  0.0-6.559072062373e-05-7.730704965070e-12 0.000000000000e+00
    9.000000000000e+01-1.243750000000e+01 4.678409160235e-09 2.486007789917e-01
   -5.364418029785e-07 1.302683516406e-02 8.450821042061e-06 5.153737983704e+03
    2.304000000000e+05-2.048909664154e-08-7.058034049391e-01 2.942979335785e-07
    9.550777084887e-01 2.159375000000e+02-2.447547508304e+00-8.112123616796e-09
   -4.778770483544e-10 1.000000000000e+00 2.062000000000e+03 0.000000000000e+00
    2.400000000000e+00 0.000000000000e+00-1.117587089539e-08 9.000000000000e+01
    2.232000000000e+05 4.000000000000e+00
10 19  7 16 16  0  0.0-1.825252547860e-05-1.307398633799e-11 0.000000000000e+00
    6.500000000000e+01-4.768750000000e+01 4.082670059595e-09-1.170569399280e+00
   -2.559274435043e-06 4.666686407290e-03 1.137517392635e-05 5.153668848038e+03
    2.304000000000e+05 1.266598701477e-07-2.817063197624e+00-7.823109626770e-08
    9.636534103411e-01 1.649375000000e+02-2.707106503383e+00-7.610317000250e-09
    3.282279577262e-10 1.000000000000e+00 2.062000000000e+03 0.000000000000e+00
    2.400000000000e+00 0.000000000000e+00 1.862645149231e-09 6.500000000000e+01
    2.232000000000e+05 4.000000000000e+00
22 19  7 16 16  0  0.0-7.318463176489e-04-5.115907697473e-12 0.000000000000e+00
    6.100000000000e+01-5.209375000000e+01 4.968778398136e-09 2.176201518934e+00
   -2.708286046982e-06 7.116516004317e-03 1.022592186928e-05 5.153761713028e+03
    2.304000000000e+05 1.322478055954e-07-2.888740680010e+00-9.313225746155e-09
    9.282314237875e-01 1.606562500000e+02-1.314145513378e+00-7.963903157104e-09
    2.185805333280e-10 1.000000000000e+00 2.062000000000e+03 0.000000000000e+00
    2.400000000000e+00 0.000000000000e+00-1.816079020500e-08 6.100000000000e+01
    2.232000000000e+05 4.000000000000e+00
16 19  7 16 16  0  0.0-5.673617124557e-05-3.183231456205e-12 0.000000000000e+00
    3.100000000000e+01 1.296250000000e+02 3.781586089668e-09-2.317555134240e+00
    6.362795829773e-06 1.074615621474e-02 9.547919034958e-06 5.153612524033e+03
    2.304000000000e+05 9.126961231232e-08 4.135058319948e-01-1.750886440277e-07
    9.828833851068e-01 2.066875000000e+02 5.822680191945e-01-7.546385765829e-09
    2.660825119761e-10 1.000000000000e+00 2.062000000000e+03 0.000000000000e+00
    2.400000000000e+00 0.000000000000e+00-1.071020960808e-08 3.100000000000e+01
    2.232000000000e+05 4.000000000000e+00
13 19  7 16 16  0  0.0-5.432916805148e-05 1.818989403546e-12 0.000000000000e+00
    3.000000000000e+01 7.500000000000e+00 4.634835916663e-09 2.099458194084e+00
    3.855675458908e-07 3.561439923942e-03 4.990026354790e-06 5.153656068802e+03
    2.304000000000e+05 4.842877388000e-08-1.643833165827e+00-6.705522537231e-08
    9.674033214200e-01 2.869375000000e+02 1.248188649256e+00-8.006762085208e-09
    1.517920370333e-10 1.000000000000e+00 2.062000000000e+03 0.000000000000e+00
    2.400000000000e+00 0.000000000000e+00-1.117587089539e-08 3.000000000000e+01
    2.232000000000e+05 4.000000000000e+00
12 19  7 16 16  0  0.0 2.233115956187e-04-3.637978807092e-12 0.000000000000e+00
    6.400000000000e+01 1.294375000000e+02 3.887661936724e-09-4.880579089081e-01
    6.817281246185e-06 7.552208495326e-03 9.479001164436e-06 5.153619102478e+03
    2.304000000000e+05 0.000000000000e+00 3.946097053753e-01 1.117587089539e-07
    9.825592726805e-01 2.161250000000e+02 1.102075279299e+00-7.771037980638e-09
    1.825076021742e-10 1.000000000000e+00 2.062000000000e+03 0.000000000000e+00
    2.400000000000e+00 0.000000000000e+00-1.257285475731e-08 6.400000000000e+01
    2.232000000000e+05 4.000000000000e+00
 6 19  7 16 16  0  0.0 1.477645710111e-04-1.125499693444e-11 0.000000000000e+00
    6.500000000000e+01-1.225937500000e+02 4.148029924953e-09 1.101461392060e+00
   -6.493180990219e-06 1.415884704329e-03 5.548819899559e-06 5.153621700287e+03
    2.304000000000e+05-7.450580596924e-09 2.419371349145e+00-3.166496753693e-08
    9.760351056999e-01 2.799375000000e+02-1.081117387622e+00-7.938544957976e-09
   -3.610864692722e-10 1.000000000000e+00 2.062000000000e+03 0.000000000000e+00
    2.400000000000e+00 0.000000000000e+00 4.190951585770e-09 6.500000000000e+01
    2.232000000000e+05 4.000000000000e+00
